[Satellite]
VERSION=1.1
NAME=VELOX-PII
NICKNAME=VELOX-PII
TLE1=1 39438U 13066Y   15054.81878984  .00001895  00000-0  26838-3 0  9994
TLE2=2 39438  97.7405 119.5304 0073684 149.4548 211.0985 14.76337415 67737
